GLOBALSTAR M024         
1 25883U 99043A   25123.97790670 -.00000007  00000+0  20512-2 0  9998
2 25883  51.9976 120.3716 0001473  18.3252   7.0403 11.10165444109956
GLOBALSTAR M027         
1 25884U 99043B   25123.87335107 -.00000092  00000+0 -10767-2 0  9994
2 25884  52.0194 197.3377 0021239 278.7882  81.0506 11.04372032136346
GLOBALSTAR M054         
1 25885U 99043C   25123.89280071 -.00000038  00000+0  84132-3 0  9993
2 25885  52.0158 332.0287 0006684  96.6746 276.5120 11.39212507114008
GLOBALSTAR M053         
1 25886U 99043D   25123.86328556 -.00000050  00000+0  53616-3 0  9999
2 25886  51.9981 276.7324 0002978  20.2456 133.6885 11.27664957114446
GLOBALSTAR M058         
1 25907U 99049A   25124.24567308 -.00000028  00000+0  76345-3 0  9991
2 25907  51.9936 226.5104 0002403 173.3769 186.7098 11.93197892147509
GLOBALSTAR M050         
1 25908U 99049B   25123.78567759 -.00000142  00000+0 -60558-3 0  9997
2 25908  51.9984 238.7317 0008486 301.9674 226.1752 12.07452802142822
GLOBALSTAR M033         
1 25909U 99049C   25123.70942520 -.00000082  00000+0  97269-4 0  9995
2 25909  51.9886 113.8422 0013479 170.9390 189.1702 12.20291022530319
GLOBALSTAR M055         
1 25910U 99049D   25123.29771921 -.00000083  00000+0  94637-4 0  9993
2 25910  51.9991 127.9360 0007054  38.2992 321.8360 12.29426857162761
